latitude	longitude	name	type	address
24.695463	121.09742	軟橋福德祠	新竹縣政府	新竹縣竹東鎮軟橋里二鄰50-1號
24.720552	121.70884	福關宮	宜蘭縣政府	宜蘭縣員山鄉蓁巷村思源路189巷14號
24.728527	120.95138	寶斗仁福德宮	新竹縣政府	新竹縣寶山鄉寶斗路寶斗村17巷8號
24.729607	120.91893	中隘村福德爺	新竹市政府	新竹市香山區中隘里中華路六段703巷23弄7號
24.730621	120.93675	境福宮	新竹市政府	新竹市香山區南隘里8鄰南隘路二段151巷27號
24.731588	121.08864	仙伯公福德宮	新竹縣政府	新竹縣竹東鎮大林路26巷21號
24.732027	121.095795	竹東鎮中山福德宮	新竹縣政府	新竹縣竹東鎮新生路212-1號
24.738232	121.09292	雞林仁愛福德宮	新竹縣政府	新竹縣竹東鎮大同路167巷9號
24.741674	120.90755	順天宮	新竹市政府	新竹市香山區內湖里中華路六段226巷48號
24.75037	121.07916	上員山福德宮	新竹縣政府	新竹縣竹東鎮上員山53-5號
24.77179	120.91541	香山福地	新竹市政府	新竹市香山區朝山里中華路五段420巷126號13號
24.775406	121.07715	芎林福德社	新竹縣政府	新竹縣芎林鄉芎林村15鄰99-1號
24.779188	120.9798	峰德宮	新竹市政府	新竹市東區高峰里15鄰高峰路386巷60弄2-1號
24.783213	120.91643	福寧宮	新竹市政府	新竹市香山區美山里1鄰中華路五段320巷48號
24.784658	121.07264	上山福德祠	新竹縣政府	新竹縣芎林鄉上山村6鄰文山路869巷5-1號
24.78577	120.9765	真福地土地公	新竹市政府	新竹市東區高峰路202巷3號
24.787037	120.975685	高峰里福德宮	新竹市政府	新竹市高峰里4鄰高峰路556號
24.789059	120.964165	南大宮	新竹市政府	新竹市東區光鎮里19鄰南大路748巷13號
24.790602	121.06413	上下山三崁店福德祠	新竹縣政府	新竹縣芎林鄉上山村文山路1205號
24.791483	120.97582	建華高峰福德祠	新竹市政府	新竹市東區高峰里寶山路142-1號
24.792143	120.93188	新竹市振湖福德宮	新竹市政府	新竹市樹下里9鄰牛埔南路428-1號
24.794947	121.17417	關西鎮學前街福德祠	新竹縣政府	新竹縣關西鎮學前街北斗里1-1號
24.797005	120.940994	牛埔庄福德宮	新竹市政府	新竹市香山區埔前里4鄰長福街24號
24.797188	120.9546	頂埔宮	新竹市政府	新竹市香山區頂埔里18鄰中山路600巷8弄2號
24.797426	120.971	鎮新宮	新竹市政府	新竹市東區南大里4鄰西大路72巷1號
24.797907	120.94779	中埔聖德宮	新竹市政府	新竹市香山區中埔里7鄰牛埔東路150巷3號
24.79916	120.965004	福德神宮	新竹市政府	新竹市東區福德里6鄰福德街4號
24.800703	120.95115	福安宮	新竹市政府	新竹市頂埔里4鄰牛埔路170巷48號
24.800861	120.99119	新竹市東區福源宮	新竹市政府	新竹市東區光復里水源街55巷2-1號
24.80173	120.955536	寶雅宮	新竹市政府	新竹市西雅里15鄰中和路109號
24.802616	121.05088	福德宮	新竹縣政府	新竹縣竹北市東興路2段東海里588巷30號
24.80264	120.96209	集福宮福德爺	新竹市政府	新竹市北區崇禮里6鄰中山路254號
24.803217	121.05093	福盛宮	新竹縣政府	新竹縣竹北市東興路東海里一段941號
24.803598	120.97667	花園福地	新竹市政府	新竹市東區公園里1鄰花園街75號
24.8036	120.987495	東勢福龍山宮	新竹市政府	新竹市東區東勢里2鄰東勝路46號
24.804367	120.96809	東瀛福地	新竹市政府	新竹市東區東門里東前街27號
24.804852	120.936134	福村宮	新竹市政府	新竹市虎山里1鄰延平路二段219巷50號
24.805937	120.95821	民富福德宮	新竹市政府	新竹市北區民富里5鄰延平路一段138巷52-1號
24.806892	120.97775	種福宮	新竹市政府	新竹市中華路2段170巷2-1號
24.80729	120.96432	北辰宮	新竹市政府	新竹市北區仁德里4鄰北大路249號
24.807415	120.91872	罟寮福德宮	新竹市政府	新竹市華江街19巷50號
24.808943	120.95704	和平福德宮	新竹市政府	新竹市北區磐石里7鄰磐石路28號
24.810202	120.9627	長和福地福德宮	新竹市政府	新竹市北區長和里愛文街26巷60號
24.81066	120.9793	真福地福德宮	新竹市政府	新竹市東區復興里三民路135號
24.812164	120.96086	北星福德宮	新竹市政府	新竹市北區城北街137巷15號
24.815077	120.981285	姜寮福地	新竹市政府	新竹市復興里17鄰經國路一段398-1號
24.815168	120.97305	文華福德宮	新竹市政府	新竹市東區文華里8鄰光華街42-8號
24.815569	120.98724	頂溪埔福德宮	新竹市政府	新竹市東區前溪里經國路一段210-1號
24.81854	120.98755	永豐宮	新竹市政府	新竹市東區前溪里3鄰經國路一段156巷228-1號
24.819891	120.97171	長和福地福德宮	新竹市政府	新竹市北區湳雅里28鄰湳雅街147巷51號
24.819954	120.99388	新竹市前溪福德宮	新竹市政府	新竹市中華路一段2巷57-1號
24.821121	120.97336	新興福德祠	新竹市政府	新竹市北區舊社里4鄰鐵道路二段166巷47號
24.82156	120.96654	南中宮	新竹市政府	新竹市北區湳中里8鄰湳中街40巷40-7號
24.821955	121.02915	新竹縣竹北市伍福宮	新竹縣政府	新竹縣竹北市勝利二路169號
24.822985	120.976036	舊社福德祠	新竹市政府	新竹市北區舊社里7鄰湳雅街311巷2號
24.825388	121.0067	福源宮	新竹縣政府	新竹縣竹北市福興路973號
24.831718	120.928604	港北福德祠	新竹市政府	新竹市港北里1鄰港北二街2號
24.834942	121.0105	德馨宮	新竹縣政府	新竹縣竹北市福德街竹義里19號
24.840376	120.98022	聯福宮	新竹縣政府	新竹縣竹北市中正西路861巷22-1號
24.843678	121.01564	福德宮	新竹縣政府	新竹縣竹北市博愛街泰和里713號
24.850332	120.95819	白境福地宮	新竹縣政府	新竹縣竹北市長青路一段333巷6號
24.85214	121.22337	福德祠	桃園市政府	桃園市龍潭區中正路上華段上華里90巷25號
24.865856	121.549675	福德宮	新北市政府	新北市烏來區溫泉街1號-1
24.869152	121.03458	湖口中興德厚宮	新竹縣政府	新竹縣湖口鄉永順街中興村28-1號
24.897196	121.27454	永福宮	桃園市政府	桃園市大溪區仁和里士香街19鄰172號
24.902988	121.53392	廣欣福德宮	新北市政府	新北市新店區平廣路284號
24.903992	121.28018	慶安宮	桃園市政府	桃園市大溪區埔仁路352號
24.904358	121.276375	和福宮	桃園市政府	桃園市大溪區埔頂路一段428號
24.90488	121.04534	德厚宮	新竹縣政府	新竹縣湖口鄉愛勢村中山路二段195號
24.90884	121.365875	三峽鎮溪墘寮福隆宮	新北市政府	新北市三峽區大埔路34號
24.919094	121.18578	埔心區福德宮	桃園市政府	桃園市楊梅區福德街埔心里4號
24.922064	121.542366	屈尺福德宮	新北市政府	新北市新店區屈尺里屈尺路161-3號
24.923475	121.243904	福德祠	桃園市政府	桃園市平鎮區東社里圳南路11鄰18巷2-1號
24.9291	121.24081	龍岡鴻福宮	桃園市政府	桃園市中壢區龍岡路3段582號
24.929956	121.22409	信義福德祠	桃園市政府	桃園市平鎮區北貴里1鄰正義路126號
24.93023	121.31881	福德宮	桃園市政府	桃園市大溪區大鶯路中新里1566-1號
24.93282	121.37812	礁溪里福德宮	新北市政府	新北市三峽區礁溪里長泰街56巷6-1號
24.934114	121.36991	三峽福安宮	新北市政府	新北市三峽區民權街32號
24.941595	121.035194	福德祠	新竹縣政府	新竹縣新豐鄉福興村7鄰43號
24.942734	121.36196	隆恩埔福恩宮	新北市政府	新北市三峽區隆恩街110巷17號
24.948128	121.223724	中壢市石頭庄地區福德宮	桃園市政府	桃園市中壢區龍明街東興里39號
24.948711	121.545555	長興宮	新北市政府	新北市新店區粗坑里新烏路1段70號
24.948748	121.352165	福南宮	新北市政府	新北市鶯歌區南靖里文化路226巷16號-1
24.949017	121.25528	中壢福仁宮	桃園市政府	桃園市中壢區仁美里榮民南路350巷56號
24.949812	121.28054	八德區廣興福德宮	桃園市政府	桃園市八德區廣興里新興路342巷120-1號
24.9503	121.47899	福德山宮	新北市政府	新北市新店區日興里7鄰安康路三段578-1號
24.95128	121.4841	建業福德宮	新北市政府	新北市新店區日興里建業路2號-1
24.951956	121.35256	鶯歌福德宮	新北市政府	新北市鶯歌區東鶯里文化路325巷3號
24.95337	121.34779	鶯歌南興宮	新北市政府	新北市鶯歌區建國路257號
24.953745	121.55698	福神宮	新北市政府	新北市新店區員潭里1鄰北宜路2段126號
24.95472	121.23823	大普仁福德祠	桃園市政府	桃園市中壢區普仁里協同街79號
24.955746	121.38761	福興廟	新北市政府	新北市樹林區柑園里柑園街2段22號
24.955896	121.4124	福安宮	新北市政府	新北市土城區溪頭路30巷23-1號
24.957582	121.295876	大湳福成宮	桃園市政府	桃園市八德區建國路1087巷30號
24.959183	121.334236	吉德宮	新北市政府	新北市鶯歌區永吉里鶯桃路285巷26弄2號
24.960007	121.24356	普忠里福德祠	桃園市政府	桃園市中壢區新中一街29號
24.960468	121.22403	中壢興南福德祠	桃園市政府	桃園市中壢區興南里慈惠二街12鄰43號
24.9608	121.54575	檳榔坑頭福德宮	新北市政府	新北市新店區中興里檳榔路151號-1
24.963303	121.329704	鎮湖宮	新北市政府	新北市鶯歌區鶯桃路413巷78弄8號-1
24.963457	121.427536	永寧福德宮	新北市政府	新北市土城區永寧里永平街1號
24.968697	121.22401	水尾福德宮	桃園市政府	桃園市中壢區水尾里新生路522-1號
24.969767	121.39405	西山福德宮	新北市政府	新北市樹林區山佳里佳園路一段95-6號
24.97367	121.39609	道山宮	新北市政府	新北市樹林區吉祥街16號
24.974792	121.42062	重興宮	新北市政府	新北市樹林區彭興里太平路247巷26-1號
24.975405	121.535576	咸亨宮	新北市政府	新北市新店區百忍里自由街2號
24.9763	121.46704	龍福宮	新北市政府	新北市土城區青山里國際路71號-1
24.978758	121.49891	南山福德宮	新北市政府	新北市中和區內南里興南路二段399巷57弄20號
24.979061	121.55287	新店寶橋福壽宮	新北市政府	新北市新店區寶福里寶橋路266號
24.9826	121.41934	福安宮	新北市政府	新北市樹林區八德街63-1號
24.983334	121.42509	樹福宮	新北市政府	新北市樹林區水源街75號
24.984022	121.307304	豐林宮	桃園市政府	桃園市桃園區豐林里三民路3段478號
24.986929	121.54589	台北市文山區溝子口福德宮	臺北市政府	臺北市文山區木柵路1段59巷1號
24.987274	121.45108	埤林廣福宮	新北市政府	新北市土城區埤林里學享街6巷1號-1
24.987984	121.91623	福正宮	新北市政府	新北市貢寮區美灩山街39-1號
24.988508	121.2877	晉福宮	桃園市政府	桃園市桃園區吉昌街232號
24.988604	121.29731	桃園市中山福德宮	桃園市政府	桃園市桃園區泰成路62巷67-3號
24.98921	121.30125	玉山宮	桃園市政府	桃園市桃園區大同西路122號
24.989405	121.506386	埤仔頭福德宮	新北市政府	新北市中和區外南里南山路236-1號
24.99028	121.4486	德興宮	新北市政府	新北市土城區貨饒里中央路1段45巷3號
24.991129	121.43386	福星宮	新北市政府	新北市板橋區成和里金門街127巷19號
24.991343	121.45927	板橋廣厚宮	新北市政府	新北市板橋區信義里信義路164-1號
24.99241	121.427475	樹林區樹德宮	新北市政府	新北市樹林區樹東里博愛街33號
24.99319	121.49957	中和中興福德宮	新北市政府	新北市中和區中興街122-2號
24.993246	121.28193	宏德宮	桃園市政府	桃園市桃園區上海路龍崗里226-1號
24.993809	121.30313	福山祠	桃園市政府	桃園市桃園區中山北路65號
24.994267	121.51885	鎮福宮	新北市政府	新北市中和區立人街24-4號
24.9954	121.297	新永安宮	桃園市政府	桃園市桃園區中正里正光路112巷102號
24.995495	121.312996	桃園市福德宮	桃園市政府	桃園市桃園區中山路2號
24.99638	121.55021	台北文山興安宮	臺北市政府	臺北市文山區仙岩路16巷64號
24.99663	121.28863	桃園區文中宮	桃園市政府	桃園市桃園區文中三路21號
24.996975	121.493416	碧河宮	新北市政府	新北市中和區碧河里連城路249號
24.996983	121.51115	潭墘樂墘宮	新北市政府	新北市中和區安和里安平路99號
24.997292	121.41279	樹林南寮福德宮	新北市政府	新北市樹林區坡內里保安街二段45巷53號
24.997547	121.42083	潭底福德宮	新北市政府	新北市樹林區豐林街40-1號
24.997658	121.434456	潤德宮	新北市政府	新北市板橋區成和里大觀路3段36巷83-1號
24.998135	121.52731	永和秀朗福德宮	新北市政府	新北市永和區民富里民樂街74-1號
24.999521	121.46384	板橋區大井頭福德祠	新北市政府	新北市板橋區重慶路269巷13號
25.00052	121.44539	浮洲福德宮	新北市政府	新北市板橋區大觀路2段163號-1號
25.002256	121.551384	福興宮	臺北市政府	臺北市文山區福興路興旺里5號
25.002787	121.31862	如意龍田福德宮	桃園市政府	桃園市桃園區三元街526號
25.003084	121.476654	廣福宮	新北市政府	新北市中和區積穗里11鄰中山路三段63巷臨27號
25.004583	121.49879	和美宮	新北市政府	新北市中和區福祥里永和路66巷1-1號
25.004925	121.50622	保慶宮	新北市政府	新北市中和區保平路326巷28號
25.005451	121.53772	台北市文山區頂公館福德宮	臺北市政府	臺北市文山區公館街萬年里44-1號
25.005947	121.44261	歡子園福德宮	新北市政府	新北市板橋區歡園里大觀路一段38巷156弄39號
25.00701	121.4525	福興宮	新北市政府	新北市板橋區湳興里南雅西路一段134-1號
25.007292	121.46214	板橋後埔福德宮	新北市政府	新北市板橋區後埔里重慶路67巷3號-1
25.009615	121.428474	西盛庄福德宮	新北市政府	新北市新莊區民安西路410巷6號
25.01081	121.63529	水尾福德宮	新北市政府	新北市深坑區草地尾116-1號
25.011251	121.46779	板橋區深丘福德宮	新北市政府	新北市板橋區區運路77號
25.012129	121.45673	板橋北門福德宮	新北市政府	新北市板橋區公館街8號8號
25.017775	121.478775	埔墘福德宮	新北市政府	新北市板橋區九如里中山路二段250巷1號
25.01848	121.478714	板橋聚靈宮	新北市政府	新北市板橋區雙玉里中山路二段臨303號
25.0194	121.45557	板橋港尾福德宮	新北市政府	新北市板橋區港尾里中正路254-1號
25.021448	121.41293	合興宮	新北市政府	新北市新莊區龍鳳里中正路893巷5號-2
25.022104	121.54748	台北市大安區福安宮	臺北市政府	臺北市大安區臥龍街虎嘯里61號
25.022408	121.46678	板橋市正聖福德宮	新北市政府	新北市板橋區自由路26巷30號
25.023611	121.422386	新莊後港福德宮	新北市政府	新北市新莊區南港里後港二路18-1號
25.02449	121.415405	福正宮	新北市政府	新北市新莊區天泉二街36巷1號
25.025103	121.52184	長慶廟	臺北市政府	臺北市中正區晉江街板溪里34號
25.0267	121.45647	新海福德宮	新北市政府	新北市板橋區德翠里龍泉街54巷7弄10號
25.026876	121.48212	板橋區港仔嘴福德宮	新北市政府	新北市板橋區縣民大道三段247巷80號
25.02796	121.569	三張犁福佑宮	臺北市政府	臺北市信義區信義路5段 150巷18-1號
25.029684	121.44733	瓊林慶臨宮	新北市政府	新北市新莊區瓊林路48號
25.029688	121.557236	福景宮	臺北市政府	臺北市大安區光復南路通化里698號
25.032005	121.44963	新莊集善堂	新北市政府	新北市新莊區泰豐里瓊林路32號
25.03226	121.43417	營盤福德宮	新北市政府	新北市新莊區福營路103號
25.032928	121.44532	新莊海山里福德宮	新北市政府	新北市新莊區海山里新莊路637號
25.033375	121.447945	全安宮	新北市政府	新北市新莊區全安里新莊路523號
25.034014	121.55697	福興宮	臺北市政府	臺北市大安區延吉街光信里 263號
25.035479	121.44429	慈福宮	新北市政府	新北市新莊區忠孝里仁愛街16號-5
25.035664	121.45552	新莊福德祠	新北市政府	新北市新莊區文德里新莊路207號
25.039738	121.45544	福德祠	新北市政府	新北市新莊區恆安里11鄰中港路108號
25.039862	121.58693	中坡福壽宮	臺北市政府	臺北市信義區福德街中坡里221巷14號
25.040491	121.62304	宜興福德宮	新北市政府	新北市汐止區宜興里林森街70號
25.04092	121.27768	福德祠	桃園市政府	桃園市蘆竹區蘆興里7鄰蘆興街487巷36號
25.042583	121.584114	玉成公園福德宮	臺北市政府	臺北市南港區鴻福里中坡南路51號
25.043695	121.55401	大安車層景福宮	臺北市政府	臺北市大安區延吉街華聲里77號
25.045126	121.57407	興雅福德宮	臺北市政府	臺北市信義區永吉路11064 30巷30號
25.04592	121.59272	後山坡福德爺廟	臺北市政府	臺北市南港區成福里東新街170巷臨1號
25.046335	121.45935	平安公廟	新北市政府	新北市新莊區思源路177巷32號
25.047651	121.576706	台北市松山五分埔福德宮	臺北市政府	臺北市信義區虎林街四育里47-3號
25.048626	121.293686	福德祀	桃園市政府	桃園市蘆竹區錦中里13鄰南崁路222號
25.049019	121.46954	三重市興德祠	新北市政府	新北市三重區中興里5鄰中興北街臨40-2號
25.049246	121.56295	福德宮	臺北市政府	臺北市松山區八德路4段吉祥里181巷16弄11號
25.04929	121.145905	后厝福德宮	桃園市政府	桃園市觀音區保障村15鄰草漯107-1號
25.049623	121.57023	松山聚福廟	臺北市政府	臺北市松山區八德路4段慈祐里490號
25.049772	121.56453	松山慈福宮	臺北市政府	臺北市松山區八德路4段慈祐里829巷26號
25.049833	121.45174	俊賢宮	新北市政府	新北市新莊區中港里中港路483巷8號
25.050247	121.35711	坪頂大湖福德宮	桃園市政府	桃園市龜山區福德街2號
25.050354	121.57412	松山福德宮	臺北市政府	臺北市松山區饒河街慈祐里92號
25.052122	121.46795	新莊福成宮	新北市政府	新北市新莊區頭前里頭前路15巷1號
25.052834	121.51061	和德祠	臺北市政府	臺北市大同區甘谷街永樂里42號
25.052835	121.54746	中崙福順宮	臺北市政府	臺北市松山區南京東路３段303巷8弄臨10號
25.054438	121.59727	新福宮	臺北市政府	臺北市南港區東新里南港路2段238巷2號
25.055197	121.62958	汐止福恩廟	新北市政府	新北市汐止區梓樹里大同路一段111巷20號
25.057533	121.52619	新福宮	臺北市政府	臺北市中山區新生北路２段中山里62巷33號
25.057701	121.592674	西新福壽宮	臺北市政府	臺北市南港區西新里成功路１段臨79號
25.05776	121.46561	新莊頭前庄福德宮	新北市政府	新北市新莊區福基里化成路750號
25.059286	121.65376	福興宮	新北市政府	新北市汐止區南興路83巷15號
25.060358	121.61322	坤元宮	臺北市政府	臺北市南港區三重里三重路79巷8弄2-1號
25.060446	121.62463	北佑宮	新北市政府	新北市汐止區南陽街91巷38弄5號
25.060673	121.450935	新莊中港福德宮	新北市政府	新北市新莊區新北大道4段2號
25.06288	121.194916	桃園市大園區田心里新興路福德宮	桃園市政府	桃園市大園區田心里九鄰新興路81號
25.063885	121.50952	台北大橋福德廟	臺北市政府	臺北市大同區迪化街2段景星里25號
25.064116	121.663666	福安宮	新北市政府	新北市汐止區福安街53-1號
25.064116	121.663666	福安宮	新北市政府	新北市汐止區福安里福安街53-1號
25.064749	121.65719	福龍宮	新北市政府	新北市汐止區復興里水源路1段71號
25.064919	121.63423	德明宮	新北市政府	新北市汐止區中興里福德一路231號
25.065125	121.46067	興珍宮	新北市政府	新北市新莊區福興里五工三路50巷23-1號
25.065222	121.65058	下寮福安宮	新北市政府	新北市汐止區智慧里大同路2段169巷40號-1
25.06537	121.47655	三重同仁宮	新北市政府	新北市三重區二重里大有街1-41號
25.065378	121.64048	和德宮	新北市政府	新北市汐止區樟樹一路129巷34弄21號
25.066074	121.67294	添福宮	新北市政府	新北市汐止區茄苳里茄福街73巷8號
25.066473	121.501884	福安宮	新北市政府	新北市三重區長元里長元街臨82-1號
25.066633	121.62008	北山福德宮	新北市政府	新北市汐止區康寧街89號
25.06796	121.655556	下街福德宮	新北市政府	新北市汐止區智慧里汐萬路一段37號
25.06906	121.6582	福興宮	新北市政府	新北市汐止區中正路214號
25.06971	121.665436	虎形山福德宮	新北市政府	新北市汐止區新昌里招商街1號
25.06995	121.68816	聖德福龍廟	新北市政府	新北市汐止區保長里保新街147號
25.070875	121.641335	番仔寮福安宮	新北市政府	新北市汐止區山光里樟樹二路339巷6弄3號-1
25.070913	121.52917	景新宮	臺北市政府	臺北市中山區濱江街新庄里6-1號
25.071486	121.541084	台北神德宮	臺北市政府	臺北市中山區濱江街大佳里180巷13號
25.071516	121.66349	和平宮	新北市政府	新北市汐止區仁德里和平街6巷8號-1
25.07233	121.68283	保長坑橋頭福德宮	新北市政府	新北市汐止區大同路三段424號
25.073374	121.46494	福興宮	新北市政府	新北市五股區興珍里中興路一段151巷4號
25.074368	121.635445	金龍湖福德宮	新北市政府	新北市汐止區湖東街5巷46號-1
25.074469	121.38213	林口東湖福德宮	新北市政府	新北市林口區仁愛路二段148號-1
25.074896	121.520836	大龍峒福壽宮	臺北市政府	臺北市大同區敦煌路重慶里臨2-1號
25.075253	121.65024	清水巖福正宮	新北市政府	新北市汐止區江北里汐萬路一段312號
25.07788	121.55659	下塔悠福德爺宮	臺北市政府	臺北市中山區敬業三路金泰里196號
25.078005	121.59615	福德祠	臺北市政府	臺北市內湖區康寧路１段236號
25.078312	121.668915	五堵福興宮	新北市政府	新北市汐止區長安里長安路62號-1
25.079367	121.45726	福安宮	新北市政府	新北市五股區更寮里更洲路47號-1
25.079435	121.43608	裕昌宮	新北市政府	新北市五股區德音里成泰路一段235號
25.079763	121.67077	福德祠	新北市政府	新北市汐止區長安里長興街一段79號-1
25.08043	121.5245	福正宮	臺北市政府	臺北市中山區中山北路４段劍潭里67號
25.080845	121.69269	中埔福德宮	基隆市政府	基隆市七堵區實踐路實踐里61-1號
25.081783	121.55056	植福宮	臺北市政府	臺北市中山區北安路成功里608巷14弄1號
25.08189	121.75099	福德宮	基隆市政府	基隆市暖暖區東勢街101-3號
25.08278	121.77105	上天福安宮	新北市政府	新北市瑞芳區上天里滴水子路29號
25.083588	121.592545	?頭福德祠	臺北市政府	臺北市內湖區內湖路2段450號
25.083675	121.522804	承德福德宮	臺北市政府	臺北市士林區後港街劍潭路40號
25.087255	121.47515	蘆洲福安宮	新北市政府	新北市蘆洲區福安里民權路臨70號
25.088545	121.404366	東泰宮	新北市政府	新北市林口區東林里粉寮路二段167號-1
25.088575	121.70355	六堵嶺頭福德宮	基隆市政府	基隆市七堵區工建路104巷67-2號
25.088905	121.667206	福明殿	基隆市政府	基隆市七堵區華新一路9-5號
25.089865	121.52289	士林街福德宮	臺北市政府	臺北市士林區義信里大南路138號
25.090162	121.44309	洲子芳洲祠	新北市政府	新北市五股區西雲路12巷1號-1
25.092503	121.70358	頂圳福德宮	基隆市政府	基隆市七堵區工建西路六堵里32號
25.095594	121.71034	七堵福安宮	基隆市政府	基隆市七堵區明德一路永安里258號
25.095716	121.73386	福德宮	基隆市政府	基隆市暖暖區暖西里水源路第4鄰36巷37-1號
25.096796	121.76159	長興宮	新北市政府	新北市瑞芳區上天里粗坑口路1巷2-2號
25.09846	121.4352	新北市五股區聚福宮	新北市政府	新北市五股區成泰里御史路134號
25.099115	121.71591	七堵福德宮	基隆市政府	基隆市七堵區崇廉街富民里11號
25.099344	121.66573	福源宮	基隆市政府	基隆市七堵區華新一路友一里107-5號
25.09936	121.737045	福興宮	基隆市政府	基隆市暖暖區暖暖街133-1號
25.09963	121.259705	源福宮	桃園市政府	桃園市蘆竹區坑口里20鄰源福街55號
25.100634	121.7247	慈福宮	基隆市政府	基隆市暖暖區八堵路185巷93-1號
25.100859	121.69979	瑪南里福興宮	基隆市政府	基隆市七堵區大華二路瑪南里2-1號
25.10154	121.66605	福德宮	基隆市政府	基隆市七堵區華新一路133號
25.102938	121.761856	萬福宮	新北市政府	新北市瑞芳區吉慶里中央路48號
25.103024	121.44894	新北市集福宮福德爺	新北市政府	新北市五股區成德里天乙路14號
25.104597	121.75997	四腳亭福興宮	新北市政府	新北市瑞芳區吉慶里月眉路10號
25.10702	121.84678	福山宮	新北市政府	新北市瑞芳區永慶里崙頂路2號
25.10809	121.69223	瑪南里大埔福德宮	基隆市政府	基隆市七堵區大華二路130號
25.108416	121.81114	龍鎮宮	新北市政府	新北市瑞芳區逢甲路38-1號
25.10847	121.800964	戴福宮	新北市政府	新北市瑞芳區一坑路297號
25.110058	121.51283	福星宮	臺北市政府	臺北市北投區自強街福興里5巷22號
25.110064	121.80681	龍安祠	新北市政府	新北市瑞芳區龍安里瑞芳街4號
25.1106	121.454575	陀靈寺	新北市政府	新北市五股區集福里7鄰孝義路48號
25.111874	121.72727	福德宮	基隆市政府	基隆市七堵區八德路26-3號
25.11219	121.801315	龍山福德宮	新北市政府	新北市瑞芳區龍山里逢甲路350-1號
25.112772	121.85643	金福宮	新北市政府	新北市瑞芳區石山里五號路253-1號
25.116175	121.7268	鶯歌里福德宮	基隆市政府	基隆市安樂區麥金路24號
25.11811	121.336815	林口福滿宮	新北市政府	新北市林口區嘉寶里寶斗厝坑38號-2
25.118694	121.30164	洪福宮	新北市政府	新北市林口區下福139號-11
25.11915	121.66516	龍安宮	基隆市政府	基隆市七堵區華新二路68-1號
25.120455	121.74398	順安宮	基隆市政府	基隆市仁愛區南榮路269巷28號
25.121206	121.74918	協安宮	基隆市政府	基隆市仁愛區南新街51巷73-5號
25.122091	121.745445	光德宮	基隆市政府	基隆市仁愛區南新街230-4號
25.12266	121.72326	安和福德宮	基隆市政府	基隆市安樂區安和一街七賢里8號
25.12294	121.74016	德厚宮	基隆市政府	基隆市仁愛區龍安街198巷105號
25.123337	121.73364	獅球嶺平安宮	基隆市政府	基隆市仁愛區獅球路48巷175-3號
25.123875	121.720665	三民里福德宮	基隆市政府	基隆市安樂區麥金路401-5號
25.125328	121.75217	福安宮	基隆市政府	基隆市仁愛區復興街60巷9號
25.12574	121.74295	南榮宮	基隆市政府	基隆市仁愛區南榮路93巷1號
25.126068	121.69717	福德宮	基隆市政府	基隆市七堵區大同街瑪東里31號-1
25.126509	121.71322	國家新城福德宮	基隆市政府	基隆市安樂區樂利三街五福里38巷13-4號
25.127113	121.7437	福安宮	基隆市政府	基隆市仁愛區愛四路2巷22號
25.127405	121.73518	朝棟里南山福德宮	基隆市政府	基隆市仁愛區成功一路113巷84-3號
25.127563	121.76496	麗旭宮	基隆市政府	基隆市信義區東信路73號
25.128088	121.742134	福德宮	基隆市政府	基隆市仁愛區愛三路49巷9號
25.128155	121.46933	一德福德宮	臺北市政府	臺北市北投區中央北路４段515巷3弄臨16-1號
25.130072	121.81813	福壽宮	新北市政府	新北市瑞芳區深澳里深澳路67-1號
25.131548	121.798546	草山福德宮	基隆市政府	基隆市中正區調和街154-3號
25.131662	121.734604	安樂區樂一路福德廟	基隆市政府	基隆市安樂區樂一路安和里28巷2號
25.131908	121.50597	福安宮	臺北市政府	臺北市北投區溫泉里公館路85巷2弄2號
25.132015	121.50324	北投集福宮	臺北市政府	臺北市北投區磺港路清江里68號
25.133337	121.80668	榮興福德宮	新北市政府	新北市瑞芳區深澳里14鄰建基路2段45號
25.133547	121.73342	福定宮	基隆市政府	基隆市安樂區定國里定街11巷18號
25.133596	121.7386	太平宮	基隆市政府	基隆市中山區中山一路189巷34號2樓
25.133732	121.75611	靈山宮	基隆市政府	基隆市信義區壽山路12-3號
25.13392	121.819786	蕃仔澳天福宮	新北市政府	新北市瑞芳區深澳里深澳路197-3號
25.13472	121.75528	名山宮	基隆市政府	基隆市信義區壽山路19-1號
25.135494	121.74911	基隆市哨船頭福德宮	基隆市政府	基隆市中正區正義路100巷37號
25.136442	121.732704	福德宮	基隆市政府	基隆市中山區西定路198-1號
25.137629	121.75341	大和宮	基隆市政府	基隆市中正區中船路112巷30弄63號
25.137999	121.476166	福慈宮	臺北市政府	臺北市北投區中央北路４段30巷臨68號
25.1383	121.485176	桃源福德宮	臺北市政府	臺北市北投區桃源里中央北路3段62號
25.14	121.79593	福清宮	基隆市政府	基隆市中正區八斗街1號
25.140537	121.71388	福德宮	基隆市政府	基隆市安樂區基金一路新崙里210巷2-1號
25.140566	121.499306	北投區廣福宮	臺北市政府	臺北市北投區大同街中庸里臨329-3號
25.140976	121.79261	福林宮	基隆市政府	基隆市中正區環港街84號3樓
25.142279	121.76146	福安宮	基隆市政府	基隆市中正區中正路318巷11-1號
25.142347	121.80219	福長宮	基隆市政府	基隆市中正區北寧路369巷43-7號
25.142557	121.7028	福德宮	基隆市政府	基隆市安樂區基金二路中崙里1巷8-1號
25.14347	121.79637	福惠宮	基隆市政府	基隆市中正區八斗街122-1號
25.145168	121.74811	基隆仙洞福德宮	基隆市政府	基隆市中山區仁安街5號
25.14656	121.738335	福興宮	基隆市政府	基隆市中山區中華路69號
25.146694	121.72608	德和宮	基隆市政府	基隆市中山區復興路228-1號
25.148584	121.74452	德安宮	基隆市政府	基隆市中山區太白街111巷1號
25.153591	121.74407	基隆太白莊福德宮	基隆市政府	基隆市中山區光華路15巷11-1號
25.154411	121.768265	福德宮	基隆市政府	基隆市中正區和一路27號
25.155542	121.622116	富士坪福德宮	新北市政府	新北市萬里區溪底里富士坪6號-2
25.156994	121.72933	福德宮	基隆市政府	基隆市中山區文明路65號
25.164568	121.6844	中幅嶺頭福德宮	新北市政府	新北市萬里區中幅里中幅路20號-1
25.178514	121.68949	福德祠	新北市政府	新北市萬里區萬里里獅頭路3號-1
25.189117	121.42758	淡水大庄福德廟府	新北市政府	新北市淡水區沙崙里新民街一段136號
25.190283	121.68359	萬里區龜吼里鼓亭路福安宮	新北市政府	新北市萬里區龜吼里鼓亭路11號-1
25.21776	121.62874	福德堂	新北市政府	新北市金山區五湖里南勢26號
